EUTELSAT 21B            
1 38992U 12062B   26025.86176402  .00000143  00000+0  00000+0 0  9997
2 38992   0.0679  17.0369 0002916 291.2116 148.7161  1.00272882 48405
EUTELSAT 70B            
1 39020U 12069A   26025.87147074 -.00000030  00000+0  00000+0 0  9997
2 39020   0.0618   5.0093 0003256 273.7741 230.5841  1.00271485 48086
EUTELSAT 117 WEST A     
1 39122U 13012A   26025.62034329  .00000001  00000+0  00000+0 0  9997
2 39122   0.0106  48.8420 0003040 260.7501 281.8350  1.00270421 47005
EUTELSAT 7B             
1 39163U 13022A   26025.85890400  .00000061  00000+0  00000+0 0  9994
2 39163   0.0658   5.0708 0005734 328.6623 107.6148  1.00272319 46521
EXPRESS-AT1             
1 39612U 14010A   26024.44210258  .00000094  00000+0  00000+0 0  9998
2 39612   0.0102  24.9003 0000386 133.2819 180.7244  1.00272516 43375
EXPRESS-AT2             
1 39613U 14010B   26025.95649124 -.00000268  00000+0  00000+0 0  9998
2 39613   0.0268 286.5462 0002137 346.3941 336.4848  1.00272633 43070
EUTELSAT 3B             
1 39773U 14030A   26025.85812399  .00000033  00000+0  00000+0 0  9991
2 39773   0.0616 353.1482 0003254 257.4896 186.5195  1.00270377 42643
EUTELSAT 115 WEST B     
1 40425U 15010B   26025.62077662 -.00000011  00000+0  00000+0 0  9994
2 40425   0.0089 180.1304 0000250 251.3011 162.0487  1.00270735 39961
